{"type": "FeatureCollection", "features": [ {"type": "Feature", "properties": {"norad_id": 34610, "name": "COSMOS 2251 DEB", "group": "cosmos-2251-debris", "lat": -52.00570267964354, "lon": 85.13436250037401, "alt_km": 970.3261722613079, "timestamp": "2025-12-23T09:49:07.477707+00:00", "meta": {"OBJECT_NAME": "COSMOS 2251 DEB", "OBJECT_ID": "1993-036WF", "EPOCH": "2025-12-22T08:48:47.099520", "MEAN_MOTION": 14.07114978, "ECCENTRICITY": 0.01809249, "INCLINATION": 74.0167, "RA_OF_ASC_NODE": 245.4354, "ARG_OF_PERICENTER": 13.8798, "MEAN_ANOMALY": 346.7216, "EPHEMERIS_TYPE": 0, "CLASSIFICATION_TYPE": "U", "NORAD_CAT_ID": 34610, "ELEMENT_SET_NO": 999, "REV_AT_EPOCH": 85695, "BSTAR": 0.0018748958, "MEAN_MOTION_DOT": 3.617e-05, "MEAN_MOTION_DDOT": 0}, "tle": {"line1": "1 34610U 93036WF  25356.36721180  .00003617  00000+0  18749-2 0  9991", "line2": "2 34610  74.0167 245.4354 0180924  13.8798 346.7216 14.07114978856952"}}, "geometry": {"type": "Point", "coordinates": [85.13436250037401, -52.00570267964354]}}, {"type": "Feature", "properties": {"norad_id": 34611, "name": "COSMOS 2251 DEB", "group": "cosmos-2251-debris", "lat": 9.404152770319136, "lon": -102.39751349228989, "alt_km": 653.9773714438888, "timestamp": "2025-12-23T09:49:07.477717+00:00", "meta": {"OBJECT_NAME": "COSMOS 2251 DEB", "OBJECT_ID": "1993-036WG", "EPOCH": "2025-12-22T00:37:52.656960", "MEAN_MOTION": 14.69657582, "ECCENTRICITY": 0.00217381, "INCLINATION": 74.0537, "RA_OF_ASC_NODE": 82.9923, "ARG_OF_PERICENTER": 121.1927, "MEAN_ANOMALY": 295.5639, "EPHEMERIS_TYPE": 0, "CLASSIFICATION_TYPE": "U", "NORAD_CAT_ID": 34611, "ELEMENT_SET_NO": 999, "REV_AT_EPOCH": 88527, "BSTAR": 0.0014537686, "MEAN_MOTION_DOT": 8.662e-05, "MEAN_MOTION_DDOT": 0}, "tle": {"line1": "1 34611U 93036WG  25356.02630390  .00008662  00000+0  14538-2 0  9994", "line2": "2 34611  74.0537  82.9923 0021738 121.1927 295.5639 14.69657582885272"}}, "geometry": {"type": "Point", "coordinates": [-102.39751349228989, 9.404152770319136]}}, {"type": "Feature", "properties": {"norad_id": 34613, "name": "COSMOS 2251 DEB", "group": "cosmos-2251-debris", "lat": 38.790388220303825, "lon": -87.45430761501207, "alt_km": 746.0789866020677, "timestamp": "2025-12-23T09:49:07.477728+00:00", "meta": {"OBJECT_NAME": "COSMOS 2251 DEB", "OBJECT_ID": "1993-036WJ", "EPOCH": "2025-12-22T00:02:12.767424", "MEAN_MOTION": 14.26485376, "ECCENTRICITY": 0.01105403, "INCLINATION": 73.9632, "RA_OF_ASC_NODE": 261.7345, "ARG_OF_PERICENTER": 91.1369, "MEAN_ANOMALY": 285.001, "EPHEMERIS_TYPE": 0, "CLASSIFICATION_TYPE": "U", "NORAD_CAT_ID": 34613, "ELEMENT_SET_NO": 999, "REV_AT_EPOCH": 86595, "BSTAR": 0.0011767155, "MEAN_MOTION_DOT": 2.999e-05, "MEAN_MOTION_DDOT": 0}, "tle": {"line1": "1 34613U 93036WJ  25356.00153666  .00002999  00000+0  11767-2 0  9998", "line2": "2 34613  73.9632 261.7345 0110540  91.1369 285.0010 14.26485376865952"}}, "geometry": {"type": "Point", "coordinates": [-87.45430761501207, 38.790388220303825]}}, {"type": "Feature", "properties": {"norad_id": 34614, "name": "COSMOS 2251 DEB", "group": "cosmos-2251-debris", "lat": -20.522814687111055, "lon": -41.52815788682405, "alt_km": 705.4997684784821, "timestamp": "2025-12-23T09:49:07.477738+00:00", "meta": {"OBJECT_NAME": "COSMOS 2251 DEB", "OBJECT_ID": "1993-036WK", "EPOCH": "2025-12-18T23:21:59.727744", "MEAN_MOTION": 14.17670739, "ECCENTRICITY": 0.0197223, "INCLINATION": 73.8822, "RA_OF_ASC_NODE": 332.666, "ARG_OF_PERICENTER": 325.6345, "MEAN_ANOMALY": 63.1604, "EPHEMERIS_TYPE": 0, "CLASSIFICATION_TYPE": "U", "NORAD_CAT_ID": 34614, "ELEMENT_SET_NO": 999, "REV_AT_EPOCH": 84855, "BSTAR": 0.0046815228, "MEAN_MOTION_DOT": 0.00011531, "MEAN_MOTION_DDOT": 0}, "tle": {"line1": "1 34614U 93036WK  25352.97360796  .00011531  00000+0  46815-2 0  9999", "line2": "2 34614  73.8822 332.6660 0197223 325.6345  63.1604 14.17670739848553"}}, "geometry": {"type": "Point", "coordinates": [-41.52815788682405, -20.522814687111055]}}, {"type": "Feature", "properties": {"norad_id": 34615, "name": "COSMOS 2251 DEB", "group": "cosmos-2251-debris", "lat": -59.348275214603255, "lon": 125.97791261539598, "alt_km": 919.2521640834739, "timestamp": "2025-12-23T09:49:07.477748+00:00", "meta": {"OBJECT_NAME": "COSMOS 2251 DEB", "OBJECT_ID": "1993-036WL", "EPOCH": "2025-12-20T18:38:01.201920", "MEAN_MOTION": 13.52204408, "ECCENTRICITY": 0.0400621, "INCLINATION": 74.0047, "RA_OF_ASC_NODE": 281.2515, "ARG_OF_PERICENTER": 186.7825, "MEAN_ANOMALY": 201.5832, "EPHEMERIS_TYPE": 0, "CLASSIFICATION_TYPE": "U", "NORAD_CAT_ID": 34615, "ELEMENT_SET_NO": 999, "REV_AT_EPOCH": 82924, "BSTAR": 5.7151311e-05, "MEAN_MOTION_DOT": 4.1e-07, "MEAN_MOTION_DDOT": 0}, "tle": {"line1": "1 34615U 93036WL  25354.77640280  .00000041  00000+0  57151-4 0  9990", "line2": "2 34615  74.0047 281.2515 0400621 186.7825 201.5832 13.52204408829242"}}, "geometry": {"type": "Point", "coordinates": [125.97791261539598, -59.348275214603255]}}, {"type": "Feature", "properties": {"norad_id": 34619, "name": "COSMOS 2251 DEB", "group": "cosmos-2251-debris", "lat": 36.01818915610136, "lon": -12.569093787627875, "alt_km": 717.5637014730537, "timestamp": "2025-12-23T09:49:07.477758+00:00", "meta": {"OBJECT_NAME": "COSMOS 2251 DEB", "OBJECT_ID": "1993-036WQ", "EPOCH": "2025-12-21T22:44:17.672928", "MEAN_MOTION": 14.64666718, "ECCENTRICITY": 0.00947682, "INCLINATION": 74.0432, "RA_OF_ASC_NODE": 182.2451, "ARG_OF_PERICENTER": 274.9952, "MEAN_ANOMALY": 84.0404, "EPHEMERIS_TYPE": 0, "CLASSIFICATION_TYPE": "U", "NORAD_CAT_ID": 34619, "ELEMENT_SET_NO": 999, "REV_AT_EPOCH": 89433, "BSTAR": 0.00019444734, "MEAN_MOTION_DOT": 1.069e-05, "MEAN_MOTION_DDOT": 0}, "tle": {"line1": "1 34619U 93036WQ  25355.94742677  .00001069  00000+0  19445-3 0  9991", "line2": "2 34619  74.0432 182.2451 0094768 274.9952  84.0404 14.64666718894336"}}, "geometry": {"type": "Point", "coordinates": [-12.569093787627875, 36.01818915610136]}}, {"type": "Feature", "properties": {"norad_id": 34620, "name": "COSMOS 2251 DEB", "group": "cosmos-2251-debris", "lat": 32.34304845917449, "lon": 9.106753017460171, "alt_km": 722.8382996350501, "timestamp": "2025-12-23T09:49:07.477768+00:00", "meta": {"OBJECT_NAME": "COSMOS 2251 DEB", "OBJECT_ID": "1993-036WR", "EPOCH": "2025-12-22T19:53:08.358144", "MEAN_MOTION": 14.49244433, "ECCENTRICITY": 0.00797098, "INCLINATION": 74.05, "RA_OF_ASC_NODE": 200.6279, "ARG_OF_PERICENTER": 234.7652, "MEAN_ANOMALY": 124.603, "EPHEMERIS_TYPE": 0, "CLASSIFICATION_TYPE": "U", "NORAD_CAT_ID": 34620, "ELEMENT_SET_NO": 999, "REV_AT_EPOCH": 86973, "BSTAR": 0.0021100486, "MEAN_MOTION_DOT": 8.356e-05, "MEAN_MOTION_DDOT": 0}, "tle": {"line1": "1 34620U 93036WR  25356.82856896  .00008356  00000+0  21100-2 0  9996", "line2": "2 34620  74.0500 200.6279 0079709 234.7652 124.6030 14.49244433869737"}}, "geometry": {"type": "Point", "coordinates": [9.106753017460171, 32.34304845917449]}}, {"type": "Feature", "properties": {"norad_id": 34622, "name": "COSMOS 2251 DEB", "group": "cosmos-2251-debris", "lat": -3.9278086930789464, "lon": 108.99378517369598, "alt_km": 896.6949889983553, "timestamp": "2025-12-23T09:49:07.477778+00:00", "meta": {"OBJECT_NAME": "COSMOS 2251 DEB", "OBJECT_ID": "1993-036WT", "EPOCH": "2025-12-22T19:35:20.522400", "MEAN_MOTION": 14.22083248, "ECCENTRICITY": 0.01048455, "INCLINATION": 74.0432, "RA_OF_ASC_NODE": 288.9315, "ARG_OF_PERICENTER": 8.9772, "MEAN_ANOMALY": 20.7424, "EPHEMERIS_TYPE": 0, "CLASSIFICATION_TYPE": "U", "NORAD_CAT_ID": 34622, "ELEMENT_SET_NO": 999, "REV_AT_EPOCH": 86603, "BSTAR": 0.00076050147, "MEAN_MOTION_DOT": 1.755e-05, "MEAN_MOTION_DDOT": 0}, "tle": {"line1": "1 34622U 93036WT  25356.81620975  .00001755  00000+0  76050-3 0  9995", "line2": "2 34622  74.0432 288.9315 0104845   8.9772  20.7424 14.22083248866036"}}, "geometry": {"type": "Point", "coordinates": [108.99378517369598, -3.9278086930789464]}}, {"type": "Feature", "properties": {"norad_id": 34626, "name": "COSMOS 2251 DEB", "group": "cosmos-2251-debris", "lat": 42.81372325093101, "lon": 107.78182964904514, "alt_km": 655.1801030291435, "timestamp": "2025-12-23T09:49:07.477789+00:00", "meta": {"OBJECT_NAME": "COSMOS 2251 DEB", "OBJECT_ID": "1993-036WX", "EPOCH": "2025-12-22T20:16:04.717920", "MEAN_MOTION": 14.72312323, "ECCENTRICITY": 0.0027069, "INCLINATION": 74.0485, "RA_OF_ASC_NODE": 304.2453, "ARG_OF_PERICENTER": 29.6226, "MEAN_ANOMALY": 353.6158, "EPHEMERIS_TYPE": 0, "CLASSIFICATION_TYPE": "U", "NORAD_CAT_ID": 34626, "ELEMENT_SET_NO": 999, "REV_AT_EPOCH": 89293, "BSTAR": 0.0010593193, "MEAN_MOTION_DOT": 6.71e-05, "MEAN_MOTION_DDOT": 0}, "tle": {"line1": "1 34626U 93036WX  25356.84449905  .00006710  00000+0  10593-2 0  9999", "line2": "2 34626  74.0485 304.2453 0027069  29.6226 353.6158 14.72312323892933"}}, "geometry": {"type": "Point", "coordinates": [107.78182964904514, 42.81372325093101]}}, {"type": "Feature", "properties": {"norad_id": 34634, "name": "COSMOS 2251 DEB", "group": "cosmos-2251-debris", "lat": 22.899595850566204, "lon": 21.710873591033753, "alt_km": 708.9399242368518, "timestamp": "2025-12-23T09:49:07.477798+00:00", "meta": {"OBJECT_NAME": "COSMOS 2251 DEB", "OBJECT_ID": "1993-036XF", "EPOCH": "2025-12-22T19:40:51.086208", "MEAN_MOTION": 14.55683689, "ECCENTRICITY": 0.0043721, "INCLINATION": 74.0513, "RA_OF_ASC_NODE": 15.8878, "ARG_OF_PERICENTER": 120.1988, "MEAN_ANOMALY": 58.4965, "EPHEMERIS_TYPE": 0, "CLASSIFICATION_TYPE": "U", "NORAD_CAT_ID": 34634, "ELEMENT_SET_NO": 999, "REV_AT_EPOCH": 88928, "BSTAR": 0.00024973974, "MEAN_MOTION_DOT": 1.076e-05, "MEAN_MOTION_DDOT": 0}, "tle": {"line1": "1 34634U 93036XF  25356.82003572  .00001076  00000+0  24974-3 0  9991", "line2": "2 34634  74.0513  15.8878 0043721 120.1988  58.4965 14.55683689889282"}}, "geometry": {"type": "Point", "coordinates": [21.710873591033753, 22.899595850566204]}}]}